API VERSION: 1.2
API SOURCE: NASA/JPL Horizons API

*******************************************************************************
 Revised: April 12, 2021               Jupiter                              599
 
 PHYSICAL DATA (revised 2025-Jan-30):
  Mass x 10^26 (kg)     = 18.9819           Density (g/cm^3)  = 1.3262 +- .0003
  Equat. radius (1 bar) = 71492+-4 km       Polar radius (km)     = 66854+-10
  Vol. Mean Radius (km) = 69911+-6          Flattening            = 0.06487
  Geometric Albedo      = 0.52              Rocky core mass (Mc/M)= 0.0261
  Sid. rot. period (III)= 9h 55m 29.711 s   Sid. rot. rate (rad/s)= 0.00017585
  Mean solar day, hrs   = ~9.9259         
  GM (km^3/s^2)         = 126686531.900     GM 1-sigma (km^3/s^2) =  +- 1.2732
  Equ. grav, ge (m/s^2) = 24.79             Pol. grav, gp (m/s^2) =  28.34
  Vis. magnitude V(1,0) = -9.40
  Vis. mag. (opposition)= -2.70             Obliquity to orbit    =  3.13 deg
  Sidereal orbit period = 11.861982204 y    Sidereal orbit period = 4332.589 d
  Mean daily motion     = 0.0831294 deg/d   Mean orbit speed, km/s= 13.0697
  Atmos. temp. (1 bar)  = 165+-5 K          Escape speed, km/s    =  59.5           
  A_roche(ice)/Rp       =  2.76             Hill's sphere rad. Rp = 740
                                 Perihelion   Aphelion     Mean
  Solar Constant (W/m^2)         56           46           51
  Maximum Planetary IR (W/m^2)   13.7         13.4         13.6
  Minimum Planetary IR (W/m^2)   13.7         13.4         13.6
*******************************************************************************


*******************************************************************************
Ephemeris / API_USER Thu Feb 19 13:06:49 2026 Pasadena, USA      / Horizons
*******************************************************************************
Target body name: Jupiter (599)                   {source: jup365_merged}
Center body name: Earth (399)                     {source: DE441}
Center-site name: BODY CENTER
*******************************************************************************
Start time      : A.D. 2034-Jun-30 08:24:00.0000 TDB
Stop  time      : A.D. 2034-Jul-03 08:24:00.0000 TDB
Step-size       : 60 minutes
*******************************************************************************
Center geodetic : 0.0, 0.0, 0.0                   {E-lon(deg),Lat(deg),Alt(km)}
Center cylindric: 0.0, 0.0, 0.0                   {E-lon(deg),Dxy(km),Dz(km)}
Center radii    : 6378.137, 6378.137, 6356.752 km {Equator_a, b, pole_c}
Output units    : AU-D
Calendar mode   : Mixed Julian/Gregorian
Output type     : GEOMETRIC cartesian states
Output format   : 3 (position, velocity, LT, range, range-rate)
EOP file        : eop.260218.p260517
EOP coverage    : DATA-BASED 1962-JAN-20 TO 2026-FEB-18. PREDICTS-> 2026-MAY-16
Reference frame : Ecliptic of J2000.0
*******************************************************************************
JDTDB
   X     Y     Z
   VX    VY    VZ
   LT    RG    RR
*******************************************************************************
$$SOE
2464143.850000000 = A.D. 2034-Jun-30 08:24:00.0000 TDB 
 X = 4.814116255746488E+00 Y = 9.944076665552960E-01 Z =-1.109593507545416E-01
 VX=-1.681551064961995E-02 VY= 5.525177134007872E-03 VZ=-3.085129008367250E-05
 LT= 2.839821477251855E-02 RG= 4.916998465391910E+00 RR=-1.534556538055548E-02
2464143.891666667 = A.D. 2034-Jun-30 09:24:00.0000 TDB 
 X = 4.813415632642294E+00 Y = 9.946376374891112E-01 Z =-1.109606361208473E-01
 VX=-1.681439685751059E-02 VY= 5.513425994406709E-03 VZ=-3.084635842998638E-05
 LT= 2.839452183877354E-02 RG= 4.916359053735139E+00 RR=-1.534619341786513E-02
2464143.933333333 = A.D. 2034-Jun-30 10:24:00.0000 TDB 
 X = 4.812715056143589E+00 Y = 9.948671185824645E-01 Z =-1.109619212896627E-01
 VX=-1.681327333112481E-02 VY= 5.501664851648768E-03 VZ=-3.084180468921225E-05
 LT= 2.839082875448109E-02 RG= 4.915719616011888E+00 RR=-1.534681631022236E-02
2464143.975000000 = A.D. 2034-Jun-30 11:24:00.0000 TDB 
 X = 4.812014526687353E+00 Y = 9.950961094274980E-01 Z =-1.109632062759553E-01
 VX=-1.681213857685081E-02 VY= 5.489894169575631E-03 VZ=-3.083759039149095E-05
 LT= 2.838713552106697E-02 RG= 4.915080152469021E+00 RR=-1.534743250349167E-02
2464144.016666667 = A.D. 2034-Jun-30 12:24:00.0000 TDB 
 X = 4.811314044771001E+00 Y = 9.953246096399236E-01 Z =-1.109644910929618E-01
 VX=-1.681099119176051E-02 VY= 5.478114613303576E-03 VZ=-3.083367110247215E-05
 LT= 2.838344214032577E-02 RG= 4.914440663417260E+00 RR=-1.534804049161500E-02
2464144.058333333 = A.D. 2034-Jun-30 13:24:00.0000 TDB 
 X = 4.810613610948066E+00 Y = 9.955526188670888E-01 Z =-1.109657757519595E-01
 VX=-1.680982988932696E-02 VY= 5.466327033306117E-03 VZ=-3.082999736736049E-05
 LT= 2.837974861440586E-02 RG= 4.913801149228584E+00 RR=-1.534863884489748E-02
2464144.100000000 = A.D. 2034-Jun-30 14:24:00.0000 TDB 
 X = 4.809913225822860E+00 Y = 9.957801367953197E-01 Z =-1.109670602620781E-01
 VX=-1.680865352239659E-02 VY= 5.454532446853409E-03 VZ=-3.082651570864535E-05
 LT= 2.837605494578782E-02 RG= 4.913161610332494E+00 RR=-1.534922623614600E-02
2464144.141666667 = A.D. 2034-Jun-30 15:24:00.0000 TDB 
 X = 4.809212890044226E+00 Y = 9.960071631564432E-01 Z =-1.109683446301532E-01
 VX=-1.680746110346803E-02 VY= 5.442732016867295E-03 VZ=-3.082316967611298E-05
 LT= 2.837236113725687E-02 RG= 4.912522047211233E+00 RR=-1.534980146470111E-02
2464144.183333333 = A.D. 2034-Jun-30 16:24:00.0000 TDB 
 X = 4.808512604298524E+00 Y = 9.962336977333635E-01 Z =-1.109696288606253E-01
 VX=-1.680625182234856E-02 VY= 5.430927027978865E-03 VZ=-3.081990095892513E-05
 LT= 2.836866719186970E-02 RG= 4.911882460394053E+00 RR=-1.535036347847681E-02
2464144.225000000 = A.D. 2034-Jun-30 17:24:00.0000 TDB 
 X = 4.807812369301905E+00 Y = 9.964597403645830E-01 Z =-1.109709129554873E-01
 VX=-1.680502506114888E-02 VY= 5.419118859440142E-03 VZ=-3.081665057398295E-05
 LT= 2.836497311291625E-02 RG= 4.911242850450589E+00 RR=-1.535091139404197E-02
2464144.266666667 = A.D. 2034-Jun-30 18:24:00.0000 TDB 
 X = 4.807112185792050E+00 Y = 9.966852909475222E-01 Z =-1.109721969142826E-01
 VX=-1.680378040630615E-02 VY= 5.407308954735590E-03 VZ=-3.081336013471931E-05
 LT= 2.836127890387699E-02 RG= 4.910603217983464E+00 RR=-1.535144451447301E-02
2464144.308333333 = A.D. 2034-Jun-30 19:24:00.0000 TDB 
 X = 4.806412054519460E+00 Y = 9.969103494405133E-01 Z =-1.109734807341565E-01
 VX=-1.680251765687425E-02 VY= 5.395498788536701E-03 VZ=-3.080997316909526E-05
 LT= 2.835758456837609E-02 RG= 4.909963563620185E+00 RR=-1.535196234410538E-02
2464144.350000000 = A.D. 2034-Jun-30 20:24:00.0000 TDB 
 X = 4.805711976238517E+00 Y = 9.971349158634020E-01 Z =-1.109747644099638E-01
 VX=-1.680123682767983E-02 VY= 5.383689833416551E-03 VZ=-3.080643638040737E-05
 LT= 2.835389011013179E-02 RG= 4.909323888004545E+00 RR=-1.535246459832530E-02
2464144.391666667 = A.D. 2034-Jun-30 21:24:00.0000 TDB 
 X = 4.805011951698543E+00 Y = 9.973589902968426E-01 Z =-1.109760479344224E-01
 VX=-1.679993814512377E-02 VY= 5.371883531982568E-03 VZ=-3.080270061060133E-05
 LT= 2.835019553290512E-02 RG= 4.908684191787746E+00 RR=-1.535295120508435E-02
2464144.433333333 = A.D. 2034-Jun-30 22:24:00.0000 TDB 
 X = 4.804311981635253E+00 Y = 9.975825728807302E-01 Z =-1.109773312982939E-01
 VX=-1.679862203244437E-02 VY= 5.360081285427772E-03 VZ=-3.079872104910886E-05
 LT= 2.834650084044989E-02 RG= 4.908044475619744E+00 RR=-1.535342229279268E-02
2464144.475000000 = A.D. 2034-Jun-30 23:24:00.0000 TDB 
 X = 4.803612066763110E+00 Y = 9.978056638128069E-01 Z =-1.109786144905436E-01
 VX=-1.679728908021822E-02 VY= 5.348284477742475E-03 VZ=-3.079445590056353E-05
 LT= 2.834280603646807E-02 RG= 4.907404740141505E+00 RR=-1.535387815655255E-02
2464144.516666667 = A.D. 2034-Jul-01 00:24:00.0000 TDB 
 X = 4.802912207768492E+00 Y = 9.980282633487672E-01 Z =-1.109798974984300E-01
 VX=-1.679594009401719E-02 VY= 5.336494450752722E-03 VZ=-3.078986750130197E-05
 LT= 2.833911112457127E-02 RG= 4.906764985978372E+00 RR=-1.535431930985113E-02
2464144.558333333 = A.D. 2034-Jul-01 01:24:00.0000 TDB 
 X = 4.802212405298448E+00 Y = 9.982503717892811E-01 Z =-1.109811803081344E-01
 VX=-1.679457603150534E-02 VY= 5.324712057016632E-03 VZ=-3.078493958940425E-05
 LT= 2.833541610820231E-02 RG= 4.906125213726443E+00 RR=-1.535474651359036E-02
2464144.600000000 = A.D. 2034-Jul-01 02:24:00.0000 TDB 
 X = 4.801512659960087E+00 Y = 9.984719894739502E-01 Z =-1.109824629050379E-01
 VX=-1.679319798542726E-02 VY= 5.312938325239568E-03 VZ=-3.077965028948263E-05
 LT= 2.833172099062468E-02 RG= 4.905485423950775E+00 RR=-1.535516062478270E-02
2464144.641666667 = A.D. 2034-Jul-01 03:24:00.0000 TDB 
 X = 4.800812972309357E+00 Y = 9.986931167812947E-01 Z =-1.109837452738115E-01
 VX=-1.679180724307714E-02 VY= 5.301174059513463E-03 VZ=-3.077398830808392E-05
 LT= 2.832802577485928E-02 RG= 4.904845617174423E+00 RR=-1.535556273591669E-02
2464144.683333333 = A.D. 2034-Jul-01 04:24:00.0000 TDB 
 X = 4.800113342847633E+00 Y = 9.989137541184762E-01 Z =-1.109850273988590E-01
 VX=-1.679040514095491E-02 VY= 5.289419835602062E-03 VZ=-3.076795188290098E-05
 LT= 2.832433046365312E-02 RG= 4.904205793873017E+00 RR=-1.535595403356198E-02
2464144.725000000 = A.D. 2034-Jul-01 05:24:00.0000 TDB 
 X = 4.799413772019378E+00 Y = 9.991339019122253E-01 Z =-1.109863092646925E-01
 VX=-1.678899307316432E-02 VY= 5.277676018066164E-03 VZ=-3.076154786532776E-05
 LT= 2.832063505945567E-02 RG= 4.903565954470666E+00 RR=-1.535633580321396E-02
2464144.766666667 = A.D. 2034-Jul-01 06:24:00.0000 TDB 
 X = 4.798714260209998E+00 Y = 9.993535606000838E-01 Z =-1.109875908562815E-01
 VX=-1.678757247657930E-02 VY= 5.265942760669731E-03 VZ=-3.075479133250825E-05
 LT= 2.831693956439642E-02 RG= 4.902926099336082E+00 RR=-1.535670941478737E-02
